COMMENT,ORIGINATOR,NORAD_CAT_ID,OBJECT_NAME,OBJECT_TYPE,CLASSIFICATION_TYPE,INTLDES,EPOCH,EPOCH_MICROSECONDS,MEAN_MOTION,ECCENTRICITY,INCLINATION,RA_OF_ASC_NODE,ARG_OF_PERICENTER,MEAN_ANOMALY,EPHEMERIS_TYPE,ELEMENT_SET_NO,REV_AT_EPOCH,BSTAR,MEAN_MOTION_DOT,MEAN_MOTION_DDOT,FILE,TLE_LINE0,TLE_LINE1,TLE_LINE2,OBJECT_ID,OBJECT_NUMBER,SEMIMAJOR_AXIS,PERIOD,APOGEE,PERIGEE,DECAYED
"GENERATED VIA SPACETRACK.ORG API","18 SPCS","48884","SPACEBEE-101","PAYLOAD","U","21059F","2022-06-02 19:36:14","801472","15.15413167","0.000936","97.5538","283.4647","152.1626","208.0109","0","999","5171","0.00028363","0.00005296","0","3477983","0 SPACEBEE-101","1 48884U 21059F   22153.81683798  .00005296  00000-0  28363-3 0  9999","2 48884  97.5538 283.4647 0009360 152.1626 208.0109 15.15413167 51714","2021-059F","48884","6897.862","95.024","526.183","513.270","0"
"GENERATED VIA SPACETRACK.ORG API","18 SPCS","48884","SPACEBEE-101","PAYLOAD","U","21059F","2022-06-03 08:16:55","30368","15.15418022","0.0009357","97.5537","283.99","150.7351","209.4407","0","999","5179","0.00026482","0.00004941","0","3479192","0 SPACEBEE-101","1 48884U 21059F   22154.34508137  .00004941  00000-0  26482-3 0  9997","2 48884  97.5537 283.9900 0009357 150.7351 209.4407 15.15418022 51794","2021-059F","48884","6897.847","95.023","526.166","513.257","0"
"GENERATED VIA SPACETRACK.ORG API","18 SPCS","48884","SPACEBEE-101","PAYLOAD","U","21059F","2022-06-03 14:37:15","82176","15.15420534","0.0009379","97.5537","284.2526","150.017","210.1601","0","999","5183","0.00026162","0.00004881","0","3479315","0 SPACEBEE-101","1 48884U 21059F   22154.60920234  .00004881  00000-0  26162-3 0  9990","2 48884  97.5537 284.2526 0009379 150.0170 210.1601 15.15420534 51839","2021-059F","48884","6897.839","95.023","526.174","513.235","0"
"GENERATED VIA SPACETRACK.ORG API","18 SPCS","48884","SPACEBEE-101","PAYLOAD","U","21059F","2022-06-03 14:37:15","82176","15.15420534","0.0009379","97.5537","284.2526","150.017","210.1601","0","999","5183","0.00026162","0.00004881","0","3479630","0 SPACEBEE-101","1 48884U 21059F   22154.60920234  .00004881  00000-0  26162-3 0  9990","2 48884  97.5537 284.2526 0009379 150.0170 210.1601 15.15420534 51839","2021-059F","48884","6897.839","95.023","526.174","513.235","0"
"GENERATED VIA SPACETRACK.ORG API","18 SPCS","48884","SPACEBEE-101","PAYLOAD","U","21059F","2022-06-04 08:03:10","33920","15.15427716","0.0009418","97.5536","284.9747","147.9109","212.2699","0","999","5194","0.00025023","0.00004666","0","3480894","0 SPACEBEE-101","1 48884U 21059F   22155.33553280  .00004666  00000-0  25023-3 0  9990","2 48884  97.5536 284.9747 0009418 147.9109 212.2699 15.15427716 51942","2021-059F","48884","6897.817","95.023","526.179","513.186","0"
"GENERATED VIA SPACETRACK.ORG API","18 SPCS","48884","SPACEBEE-101","PAYLOAD","U","21059F","2022-06-04 19:08:44","862144","15.15432701","0.0009426","97.5536","285.4343","146.5867","213.5962","0","999","5201","0.00027027","0.00005046","0","3481005","0 SPACEBEE-101","1 48884U 21059F   22155.79774146  .00005046  00000-0  27027-3 0  9995","2 48884  97.5536 285.4343 0009426 146.5867 213.5962 15.15432701 52011","2021-059F","48884","6897.802","95.022","526.169","513.165","0"
"GENERATED VIA SPACETRACK.ORG API","18 SPCS","48884","SPACEBEE-101","PAYLOAD","U","21059F","2022-06-04 19:08:44","862144","15.15432701","0.0009426","97.5536","285.4343","146.5867","213.5962","0","999","5201","0.00027027","0.00005046","0","3481313","0 SPACEBEE-101","1 48884U 21059F   22155.79774146  .00005046  00000-0  27027-3 0  9995","2 48884  97.5536 285.4343 0009426 146.5867 213.5962 15.15432701 52011","2021-059F","48884","6897.802","95.022","526.169","513.165","0"
"GENERATED VIA SPACETRACK.ORG API","18 SPCS","48884","SPACEBEE-101","PAYLOAD","U","21059F","2022-06-05 18:54:59","116608","15.15442448","0.0009457","97.5535","286.419","143.683","216.5046","0","999","5216","0.0002894","0.0000541","0","3482995","0 SPACEBEE-101","1 48884U 21059F   22156.78818422  .00005410  00000-0  28940-3 0  9991","2 48884  97.5535 286.4190 0009457 143.6830 216.5046 15.15442448 52164","2021-059F","48884","6897.773","95.022","526.161","513.114","0"
"GENERATED VIA SPACETRACK.ORG API","18 SPCS","48884","SPACEBEE-101","PAYLOAD","U","21059F","2022-06-06 07:35:38","465952","15.15447694","0.0009489","97.5535","286.9442","142.137","218.0531","0","999","5224","0.00028639","0.00005354","0","3483667","0 SPACEBEE-101","1 48884U 21059F   22157.31641743  .00005354  00000-0  28639-3 0  9993","2 48884  97.5535 286.9442 0009489 142.1370 218.0531 15.15447694 52240","2021-059F","48884","6897.757","95.021","526.167","513.076","0"
"GENERATED VIA SPACETRACK.ORG API","18 SPCS","48884","SPACEBEE-101","PAYLOAD","U","21059F","2022-06-06 13:55:58","70208","15.15451553","0.0009496","97.5535","287.2068","141.2616","218.9298","0","999","5228","0.00032049","0.00006","0","3484104","0 SPACEBEE-101","1 48884U 21059F   22157.58053322  .00006000  00000-0  32049-3 0  9991","2 48884  97.5535 287.2068 0009496 141.2616 218.9298 15.15451553 52281","2021-059F","48884","6897.745","95.021","526.160","513.060","0"
"GENERATED VIA SPACETRACK.ORG API","18 SPCS","48884","SPACEBEE-101","PAYLOAD","U","21059F","2022-06-06 18:41:12","735168","15.15454037","0.0009502","97.5535","287.4037","140.7916","219.4006","0","999","5231","0.00032539","0.00006094","0","3484350","0 SPACEBEE-101","1 48884U 21059F   22157.77861962  .00006094  00000-0  32539-3 0  9996","2 48884  97.5535 287.4037 0009502 140.7916 219.4006 15.15454037 52311","2021-059F","48884","6897.737","95.021","526.157","513.048","0"
"GENERATED VIA SPACETRACK.ORG API","18 SPCS","48884","SPACEBEE-101","PAYLOAD","U","21059F","2022-06-07 07:21:51","725088","15.15460139","0.0009557","97.5535","287.9288","139.096","221.0991","0","999","5239","0.00032149","0.00006021","0","3484919","0 SPACEBEE-101","1 48884U 21059F   22158.30684867  .00006021  00000-0  32149-3 0  9990","2 48884  97.5535 287.9288 0009557 139.0960 221.0991 15.15460139 52394","2021-059F","48884","6897.719","95.021","526.176","512.992","0"
"GENERATED VIA SPACETRACK.ORG API","18 SPCS","48884","SPACEBEE-101","PAYLOAD","U","21059F","2022-06-07 21:37:35","299200","15.15468605","0.0009605","97.5535","288.5197","137.242","222.9561","0","999","5248","0.00033905","0.00006355","0","3485136","0 SPACEBEE-101","1 48884U 21059F   22158.90110300  .00006355  00000-0  33905-3 0  9993","2 48884  97.5535 288.5197 0009605 137.2420 222.9561 15.15468605 52484","2021-059F","48884","6897.693","95.020","526.184","512.933","0"
"GENERATED VIA SPACETRACK.ORG API","18 SPCS","48884","SPACEBEE-101","PAYLOAD","U","21059F","2022-06-08 02:22:49","763712","15.15471158","0.0009617","97.5536","288.7166","136.593","223.6062","0","999","5251","0.00033659","0.00006309","0","3485231","0 SPACEBEE-101","1 48884U 21059F   22159.09918708  .00006309  00000-0  33659-3 0  9997","2 48884  97.5536 288.7166 0009617 136.5930 223.6062 15.15471158 52519","2021-059F","48884","6897.686","95.020","526.184","512.917","0"
"GENERATED VIA SPACETRACK.ORG API","18 SPCS","48884","SPACEBEE-101","PAYLOAD","U","21059F","2022-06-08 08:43:08","992128","15.15474719","0.0009615","97.5536","288.9792","135.8174","224.3828","0","999","5255","0.00032847","0.00006156","0","3485745","0 SPACEBEE-101","1 48884U 21059F   22159.36329852  .00006156  00000-0  32847-3 0  9991","2 48884  97.5536 288.9792 0009615 135.8174 224.3828 15.15474719 52554","2021-059F","48884","6897.675","95.020","526.172","512.908","0"
"GENERATED VIA SPACETRACK.ORG API","18 SPCS","48884","SPACEBEE-101","PAYLOAD","U","21059F","2022-06-08 19:48:42","524352","15.1548105","0.0009641","97.5536","289.4388","134.249","225.9535","0","999","5262","0.00032505","0.00006092","0","3486517","0 SPACEBEE-101","1 48884U 21059F   22159.82549218  .00006092  00000-0  32505-3 0  9992","2 48884  97.5536 289.4388 0009641 134.2490 225.9535 15.15481050 52620","2021-059F","48884","6897.656","95.019","526.171","512.870","0"
"GENERATED VIA SPACETRACK.ORG API","18 SPCS","48884","SPACEBEE-101","PAYLOAD","U","21059F","2022-06-09 10:04:25","406400","15.15488445","0.0009679","97.5536","290.0296","132.3191","227.8863","0","999","5271","0.00030752","0.00005761","0","3488214","0 SPACEBEE-101","1 48884U 21059F   22160.41973850  .00005761  00000-0  30752-3 0  9996","2 48884  97.5536 290.0296 0009679 132.3191 227.8863 15.15488445 52714","2021-059F","48884","6897.633","95.019","526.174","512.822","0"
"GENERATED VIA SPACETRACK.ORG API","18 SPCS","48884","SPACEBEE-101","PAYLOAD","U","21059F","2022-06-09 14:49:39","644544","15.15490772","0.0009696","97.5536","290.2265","131.7592","228.4471","0","999","5274","0.00030574","0.00005728","0","3488445","0 SPACEBEE-101","1 48884U 21059F   22160.61781996  .00005728  00000-0  30574-3 0  9991","2 48884  97.5536 290.2265 0009696 131.7592 228.4471 15.15490772 52740","2021-059F","48884","6897.626","95.019","526.179","512.803","0"
"GENERATED VIA SPACETRACK.ORG API","18 SPCS","48884","SPACEBEE-101","PAYLOAD","U","21059F","2022-06-09 14:49:39","644544","15.15490772","0.0009696","97.5536","290.2265","131.7592","228.4471","0","999","5274","0.00030574","0.00005728","0","3489040","0 SPACEBEE-101","1 48884U 21059F   22160.61781996  .00005728  00000-0  30574-3 0  9991","2 48884  97.5536 290.2265 0009696 131.7592 228.4471 15.15490772 52740","2021-059F","48884","6897.626","95.019","526.179","512.803","0"
"GENERATED VIA SPACETRACK.ORG API","18 SPCS","48884","SPACEBEE-101","PAYLOAD","U","21059F","2022-06-10 09:50:36","317184","15.15500634","0.0009718","97.5535","291.0143","129.416","230.7934","0","999","5286","0.00029927","0.00005607","0","3489795","0 SPACEBEE-101","1 48884U 21059F   22161.41014256  .00005607  00000-0  29927-3 0  9994","2 48884  97.5535 291.0143 0009718 129.4160 230.7934 15.15500634 52865","2021-059F","48884","6897.596","95.018","526.164","512.758","0"
